STARLINK-32106          
1 59690C 24086J   26182.44909722  .00009808  00000+0  35518-3 0  1828
2 59690  42.9997 129.7915 0001213 277.0504 262.8924 15.27578790    12
STARLINK-32090          
1 59691C 24086K   26182.53937500 -.00019908  00000+0 -72088-3 0  1821
2 59691  42.9999 140.8059 0001335 267.9095 288.9182 15.27597536    10
STARLINK-32088          
1 59693C 24086M   26182.51993056 -.00016597  00000+0 -60104-3 0  1826
2 59693  43.0008 129.4941 0001477 264.1867 263.2951 15.27592786    13
STARLINK-32107          
1 59694C 24086N   26182.51368056 -.00007895  00000+0 -28588-3 0  1824
2 59694  43.0001 137.3333 0001396 267.1134 216.3238 15.27588796    13
STARLINK-32104          
1 59695C 24086P   26182.53243056 -.00032963  00000+0 -11937-2 0  1822
2 59695  42.9999 133.6851 0001285 271.1444 319.9940 15.27599544    11
STARLINK-32094          
1 59696C 24086Q   26182.44979167  .00024172  00000+0  87545-3 0  1822
2 59696  43.0000 137.7425 0001400 276.6671 193.8077 15.27568639    11
STARLINK-32099          
1 59697C 24086R   26182.47895833 -.00045765  00000+0 -16546-2 0  1828
2 59697  43.0023 137.0633 0001333 271.3224 218.9606 15.27660325    14
STARLINK-32096          
1 59698C 24086S   26182.46715278  .00007861  00000+0  28474-3 0  1829
2 59698  43.0025 137.3102 0001763 276.4898  71.0657 15.27573458    15
STARLINK-32102          
1 59699C 24086T   26182.45812500  .00011708  00000+0  42393-3 0  1826
2 59699  43.0026 137.2653 0001376 271.8210  68.4601 15.27582071    14
STARLINK-32092          
1 59700C 24086U   26182.49423611  .00001156  00000+0  41859-4 0  1827
2 59700  43.0011 137.2909 0001525 269.6286 170.4216 15.27588438    18
STARLINK-32093          
1 59701C 24086V   26182.50743056 -.00007554  00000+0 -27351-3 0  1828
2 59701  43.0016 137.1828 0001482 268.4293 258.4148 15.27593665    19
STARLINK-32087          
1 59702C 24086W   26182.47062500  .00009422  00000+0  34117-3 0  1825
2 59702  43.0030 137.2411 0001619 274.8768 112.9951 15.27580685    19
STARLINK-32086          
1 59703C 24086X   26182.49701389 -.00011121  00000+0 -40247-3 0  1825
2 59703  43.0012 136.8577 0001158 271.5747   0.5681 15.27610008    12
STARLINK-32098          
1 59704C 24086Y   26182.45048611  .00022479  00000+0  81399-3 0  1823
2 59704  43.0003 137.6392 0001429 271.4424 245.2947 15.27574807    18
STARLINK-11107 [DTC]    
1 59708C 24088A   26182.49354167 -.00134460  00000+0 -11069-2 0  1821
2 59708  53.1571 124.9537 0001234  91.8040 163.9979 15.69792797    13
STARLINK-11088 [DTC]    
1 59709C 24088B   26182.44979167 -.00007296  00000+0 -60056-4 0  1828
2 59709  53.1574 125.7831 0001109  82.5979 340.7415 15.69731822    14
STARLINK-11092 [DTC]    
1 59710C 24088C   26182.47062500 -.00065025  00000+0 -53506-3 0  1822
2 59710  53.1574 125.6240 0001145  96.6156 112.2543 15.69767472    16
STARLINK-11082 [DTC]    
1 59711C 24088D   26182.46784722 -.00064792  00000+0 -53325-3 0  1828
2 59711  53.1571 125.5805 0001029  87.8769 133.0250 15.69762954    19
STARLINK-11108 [DTC]    
1 59712C 24088E   26182.46159722 -.00045907  00000+0 -37795-3 0  1825
2 59712  53.1569 125.5541 0001084  93.3586 119.9471 15.69745392    19
STARLINK-11100 [DTC]    
1 59713C 24088F   26182.43937500 -.00015236  00000+0 -12541-3 0  1825
2 59713  53.1565 125.6062 0001081  85.5703  29.8159 15.69736000    14
STARLINK-11094 [DTC]    
1 59714C 24088G   26182.49770833 -.00117670  00000+0 -96897-3 0  1827
2 59714  53.1564 125.2681 0001190  86.8957  26.0484 15.69776327    19
STARLINK-11101 [DTC]    
1 59715C 24088H   26182.49423611 -.00038600  00000+0 -31771-3 0  1822
2 59715  53.1571 125.1640 0001126  91.6680  57.1340 15.69747595    19
STARLINK-11099 [DTC]    
1 59716C 24088J   26182.53173611 -.00177010  00000+0 -14578-2 0  1824
2 59716  53.1570 125.0360 0001029  88.8890 244.1946 15.69803333    13
STARLINK-11084 [DTC]    
1 59717C 24088K   26182.43729167 -.00005414  00000+0 -44549-4 0  1828
2 59717  53.1572 125.3880 0001198  88.7894 125.7702 15.69737587    17
STARLINK-11103 [DTC]    
1 59718C 24088L   26182.48798611 -.00047019  00000+0 -38699-3 0  1829
2 59718  53.1573 125.0806 0001390  90.5176  78.4192 15.69752296    13
STARLINK-11096 [DTC]    
1 59719C 24088M   26182.52965278 -.00142120  00000+0 -11703-2 0  1825
2 59719  53.1572 125.4397 0001016  83.8179  43.3402 15.69789458    10
STARLINK-11095 [DTC]    
1 59720C 24088N   26182.45673611 -.00008604  00000+0 -70774-4 0  1829
2 59720  53.1571 125.1770 0001007  79.9895 299.9856 15.69747419    17
STARLINK-31834          
1 59721C 24088P   26182.47270833  .00022893  00000+0  73524-3 0  1820
2 59721  53.1601 331.2561 0001207  95.6778 310.1701 15.31731201    13
STARLINK-31843          
1 59722C 24088Q   26182.52895833 -.00054386  00000+0 -17447-2 0  1825
2 59722  53.1604 331.0433 0001246  92.3589 238.0713 15.31806730    11
STARLINK-31766          
1 59723C 24088R   26182.46159722  .00029921  00000+0  10072-2 0  1821
2 59723  53.1610 331.5238 0000730  94.6550 139.0573 15.30217159    11
STARLINK-31836          
1 59724C 24088S   26182.48659722  .00020726  00000+0  66546-3 0  1821
2 59724  53.1595 330.7364 0001039  88.8007 265.4305 15.31741342    14
STARLINK-31820          
1 59725C 24088T   26182.54423611 -.00023679  00000+0 -76066-3 0  1825
2 59725  53.1592 330.5675 0001063  86.0927 174.6375 15.31747154    18
STARLINK-31642          
1 59726C 24088U   26182.52965278 -.00085798  00000+0 -27556-2 0  1823
2 59726  53.1589 330.6865 0000918  91.3207  63.2150 15.31785491    15
STARLINK-31827          
1 59727C 24088V   26182.45256944  .00033501  00000+0  10759-2 0  1829
2 59727  53.1603 331.2954 0001179  98.7034 221.7819 15.31727411    19
STARLINK-31472          
1 59730C 24090A   26182.49562500 -.00123340  00000+0 -44667-2 0  1826
2 59730  43.0015 260.7628 0001524 274.1388 152.6796 15.27645567    10
STARLINK-31817          
1 59731C 24090B   26182.47756944 -.00194580  00000+0 -70507-2 0  1828
2 59731  43.0018 260.6328 0001485 264.9268 161.5344 15.27660391    10
STARLINK-31833          
1 59733C 24090D   26182.50951389 -.00089282  00000+0 -32337-2 0  1825
2 59733  42.9990 260.8698 0001500 275.8381 149.6208 15.27623552    10
STARLINK-31849          
1 59734C 24090E   26182.51368056 -.00058013  00000+0 -21017-2 0  1821
2 59734  42.9992 253.7897 0001314 271.1308 235.6312 15.27600348    16
STARLINK-31661          
1 59735C 24090F   26182.45187500 -.00099715  00000+0 -36119-2 0  1821
2 59735  42.9991 253.9864 0001522 272.2995 317.8389 15.27625487    15
STARLINK-31707          
1 59736C 24090G   26182.45256944 -.00098989  00000+0 -35847-2 0  1820
2 59736  43.0020 260.9607 0001652 268.7820 302.2174 15.27633772    11
STARLINK-31821          
1 59737C 24090H   26182.50395833 -.00122440  00000+0 -44358-2 0  1825
2 59737  43.0002 260.8226 0001596 276.0978 154.1689 15.27631079    14
STARLINK-31819          
1 59738C 24090J   26182.46298611 -.00079580  00000+0 -28820-2 0  1829
2 59738  43.0011 260.9819 0001680 274.8015 318.1650 15.27621400    13
STARLINK-31726          
1 59739C 24090K   26182.48868056 -.00117750  00000+0 -42643-2 0  1829
2 59739  43.0010 260.5173 0001183 273.8280 235.0349 15.27640511    19
STARLINK-31759          
1 59740C 24090L   26182.47270833 -.00119240  00000+0 -43188-2 0  1821
2 59740  42.9992 261.2297 0001443 272.1162 247.0492 15.27638731    16
STARLINK-31818          
1 59741C 24090M   26182.44979167 -.00112980  00000+0 -40921-2 0  1821
2 59741  42.9991 261.2566 0001536 270.1115 165.3244 15.27635303    13
STARLINK-31816          
1 59742C 24090N   26182.52756944 -.00089184  00000+0 -32307-2 0  1825
2 59742  42.9995 260.9827 0001252 267.4537 158.4140 15.27618042    15
STARLINK-31809          
1 59743C 24090P   26182.45673611 -.00093353  00000+0 -33817-2 0  1827
2 59743  42.9988 254.0053 0001557 273.0819 322.6038 15.27620482    19
STARLINK-31779          
1 59744C 24090Q   26182.49423611 -.00115980  00000+0 -42019-2 0  1820
2 59744  43.0023 260.5864 0001370 277.1783 219.8350 15.27626019    18
STARLINK-31805          
1 59745C 24090R   26182.45465278 -.00081407  00000+0 -29483-2 0  1828
2 59745  43.0002 260.6572 0001215 273.0016  69.7248 15.27621547    14
STARLINK-31681          
1 59746C 24090S   26182.51298611 -.00063786  00000+0 -23108-2 0  1829
2 59746  42.9993 253.7405 0001549 271.9041 252.2594 15.27602997    16
STARLINK-31636          
1 59747C 24090T   26182.44631944 -.00124440  00000+0 -45069-2 0  1827
2 59747  43.0023 260.8895 0001463 276.7839 302.2478 15.27643224    13
STARLINK-31640          
1 59748C 24090U   26182.46229167 -.00110100  00000+0 -39881-2 0  1823
2 59748  43.0006 261.0198 0001700 272.3990 302.6071 15.27630546    14
STARLINK-31677          
1 59749C 24090V   26182.48243056 -.00099599  00000+0 -36078-2 0  1822
2 59749  42.9995 261.1230 0001540 268.5484 325.3718 15.27624164    14
STARLINK-31783          
1 59750C 24090W   26182.47826389 -.00103100  00000+0 -37344-2 0  1820
2 59750  42.9993 261.2469 0001424 267.9909 260.5418 15.27628488    15
STARLINK-31808          
1 59751C 24090X   26182.54909722 -.00071731  00000+0 -25987-2 0  1826
2 59751  42.9998 260.0719 0001412 270.7150 253.2486 15.27606972    11
STARLINK-31822          
1 59752C 24090Y   26182.46090278 -.00115080  00000+0 -41669-2 0  1826
2 59752  43.0018 260.8569 0001473 269.9023   8.2028 15.27645006    15
STARLINK-11118 [DTC]    
1 59754C 24091B   26182.46506944  .00067931  00000+0  55983-3 0  1825
2 59754  53.1566   5.7219 0000819 112.1555  65.2752 15.69664773    12
STARLINK-11132 [DTC]    
1 59755C 24091C   26182.53937500  .00057890  00000+0  47722-3 0  1825
2 59755  53.1567   5.2419 0001144 114.6926 178.3677 15.69662042    11
STARLINK-11131 [DTC]    
1 59756C 24091D   26182.46923611  .00064555  00000+0  53197-3 0  1825
2 59756  53.1567   5.5334 0001004  78.5307 205.6636 15.69667784    14
